NORAD_CAT_ID,OBJECT_NAME,OBJECT_TYPE,EPOCH,MEAN_MOTION,ECCENTRICITY,INCLINATION,RA_OF_ASC_NODE,ARG_OF_PERICENTER,MEAN_ANOMALY,BSTAR,MEAN_MOTION_DOT,MEAN_MOTION_DDOT,TLE_LINE0,TLE_LINE1,TLE_LINE2,SEMIMAJOR_AXIS,PERIOD,APOGEE,PERIGEE,DECAYED
54008.0,STARLINK-5145,PAYLOAD,2024-07-06 09:32:19,15.08840524,0.0001489,53.2165,67.9541,107.1997,252.9158,-2.8481e-05,-7.41e-06,0.0,0 STARLINK-5145,1 54008U 22125AW  24188.39744436 -.00000741  00000-0 -28481-4 0  9993,2 54008  53.2165  67.9541 0001489 107.1997 252.9158 15.08840524 97374,6917.879,95.438,540.774,538.714,0.0
54008.0,STARLINK-5145,PAYLOAD,2024-07-06 22:15:24,15.08837461,0.000168,53.2205,65.5765,93.8203,266.2982,-4.1071e-06,-3.53e-06,0.0,0 STARLINK-5145,1 54008U 22125AW  24188.92736698 -.00000353  00000-0 -41071-5 0  9993,2 54008  53.2205  65.5765 0001680  93.8203 266.2982 15.08837461 97408,6917.888,95.438,540.915,538.591,0.0
54008.0,STARLINK-5145,PAYLOAD,2024-07-07 09:23:06,15.08840864,0.0001502,53.2192,63.496,101.0754,259.0407,2.3431e-06,-2.51e-06,0.0,0 STARLINK-5145,1 54008U 22125AW  24189.39104343 -.00000251  00000-0  23431-5 0  9997,2 54008  53.2192  63.4960 0001502 101.0754 259.0407 15.08840864 97473,6917.878,95.438,540.782,538.704,0.0
54008.0,STARLINK-5145,PAYLOAD,2024-07-07 20:30:47,15.08841749,0.0001349,53.2184,61.4163,97.3605,262.754,5.975e-05,6.63e-06,0.0,0 STARLINK-5145,1 54008U 22125AW  24189.85472140  .00000663  00000-0  59750-4 0  9999,2 54008  53.2184  61.4163 0001349  97.3605 262.7540 15.08841749 97593,6917.875,95.437,540.673,538.807,0.0
54008.0,STARLINK-5145,PAYLOAD,2024-07-08 06:03:06,15.0884827,0.0001454,53.2189,59.6302,95.7857,264.3301,2.8198e-05,1.61e-06,0.0,0 STARLINK-5145,1 54008U 22125AW  24190.25215682  .00000161  00000-0  28198-4 0  9996,2 54008  53.2189  59.6302 0001454  95.7857 264.3301 15.08848270 97601,6917.855,95.437,540.726,538.714,0.0
54008.0,STARLINK-5145,PAYLOAD,2024-07-08 20:21:35,15.08834553,0.0001699,53.2185,56.9527,110.3535,249.764,3.9665e-05,3.43e-06,0.0,0 STARLINK-5145,1 54008U 22125AW  24190.84832686  .00000343  00000-0  39665-4 0  9993,2 54008  53.2185  56.9527 0001699 110.3535 249.7640 15.08834553 97741,6917.897,95.438,540.937,538.587,0.0
54008.0,STARLINK-5145,PAYLOAD,2024-07-08 21:56:58,15.08839139,0.0001542,53.2179,56.6542,90.2389,269.878,5.017e-05,5.11e-06,0.0,0 STARLINK-5145,1 54008U 22125AW  24190.91456519  .00000511  00000-0  50170-4 0  9999,2 54008  53.2179  56.6542 0001542  90.2389 269.8780 15.08839139 97707,6917.883,95.438,540.815,538.681,0.0
54008.0,STARLINK-5145,PAYLOAD,2024-07-09 07:29:17,15.08822927,0.0001535,53.2183,54.8732,93.2998,266.817,0.00022373,3.273e-05,0.0,0 STARLINK-5145,1 54008U 22125AW  24191.31201264  .00003273  00000-0  22373-3 0  9990,2 54008  53.2183  54.8732 0001535  93.2998 266.8170 15.08822927 97767,6917.933,95.439,540.859,538.736,0.0
54008.0,STARLINK-5145,PAYLOAD,2024-07-09 20:12:22,15.0884136,0.0001536,53.2187,52.4951,107.9377,252.1783,2.7098e-05,1.43e-06,0.0,0 STARLINK-5145,1 54008U 22125AW  24191.84192488  .00000143  00000-0  27098-4 0  9998,2 54008  53.2187  52.4951 0001536 107.9377 252.1783 15.08841360 97842,6917.876,95.437,540.804,538.679,0.0
54008.0,STARLINK-5145,PAYLOAD,2024-07-10 13:41:37,15.08832586,0.0001339,53.2183,49.2277,90.6578,269.4567,6.1986e-05,6.99e-06,0.0,0 STARLINK-5145,1 54008U 22125AW  24192.57057126  .00000699  00000-0  61986-4 0  9998,2 54008  53.2183  49.2277 0001339  90.6578 269.4567 15.08832586 98005,6917.903,95.438,540.694,538.842,0.0
54008.0,STARLINK-5145,PAYLOAD,2024-07-12 07:01:38,15.08838797,0.0001451,53.2201,41.4977,87.9417,272.1741,3.5644e-05,2.79e-06,0.0,0 STARLINK-5145,1 54008U 22125AW  24194.29281127  .00000279  00000-0  35644-4 0  9995,2 54008  53.2201  41.4977 0001451  87.9417 272.1741 15.08838797 98266,6917.884,95.438,540.753,538.745,0.0
54008.0,STARLINK-5145,PAYLOAD,2024-07-12 19:44:44,15.08838428,0.000143,53.2195,39.1146,87.2303,272.8852,3.5414e-05,2.76e-06,0.0,0 STARLINK-5145,1 54008U 22125AW  24194.82273327  .00000276  00000-0  35414-4 0  9999,2 54008  53.2195  39.1146 0001430  87.2303 272.8852 15.08838428 98298,6917.885,95.438,540.739,538.761,0.0
54008.0,STARLINK-5145,PAYLOAD,2024-07-13 06:52:26,15.08843387,0.0001516,53.2208,37.0294,97.4515,262.665,-4.2687e-05,-9.67e-06,0.0,0 STARLINK-5145,1 54008U 22125AW  24195.28641414 -.00000967  00000-0 -42687-4 0  9995,2 54008  53.2208  37.0294 0001516  97.4515 262.6650 15.08843387 98368,6917.87,95.437,540.784,538.686,0.0
54008.0,STARLINK-5145,PAYLOAD,2024-07-13 19:35:30,15.08846532,0.0001026,53.2162,34.6559,96.85,263.2609,-2.3519e-05,-6.62e-06,0.0,0 STARLINK-5145,1 54008U 22125AW  24195.81632919 -.00000662  00000-0 -23519-4 0  9999,2 54008  53.2162  34.6559 0001026  96.8500 263.2609 15.08846532 98497,6917.86,95.437,540.435,539.016,0.0
54008.0,STARLINK-5145,PAYLOAD,2024-07-13 22:46:16,15.08853755,0.0001196,53.2177,34.0597,99.1115,261.0013,4.603e-05,4.45e-06,0.0,0 STARLINK-5145,1 54008U 22125AW  24195.94880263  .00000445  00000-0  46030-4 0  9990,2 54008  53.2177  34.0597 0001196  99.1115 261.0013 15.08853755 98518,6917.838,95.437,540.531,538.876,0.0
54008.0,STARLINK-5145,PAYLOAD,2024-07-14 06:43:13,15.08837614,0.000158,53.2209,32.5703,91.3964,268.7209,5.0081e-05,5.09e-06,0.0,0 STARLINK-5145,1 54008U 22125AW  24196.28001349  .00000509  00000-0  50081-4 0  9990,2 54008  53.2209  32.5703 0001580  91.3964 268.7209 15.08837614 98561,6917.888,95.438,540.846,538.66,0.0
54008.0,STARLINK-5145,PAYLOAD,2024-07-14 19:26:18,15.08840182,0.0001381,53.2206,30.1919,90.0626,270.0525,6.8908e-05,8.09e-06,0.0,0 STARLINK-5145,1 54008U 22125AW  24196.80993116  .00000809  00000-0  68908-4 0  9990,2 54008  53.2206  30.1919 0001381  90.0626 270.0525 15.08840182 98595,6917.88,95.438,540.7,538.789,0.0
54008.0,STARLINK-5145,PAYLOAD,2024-07-15 06:33:59,15.08845166,0.0001433,53.2172,28.1121,90.3127,269.8029,0.00010772,1.427e-05,0.0,0 STARLINK-5145,1 54008U 22125AW  24197.27360657  .00001427  00000-0  10772-3 0  9992,2 54008  53.2172  28.1121 0001433  90.3127 269.8029 15.08845166 98712,6917.865,95.437,540.721,538.738,0.0
54008.0,STARLINK-5145,PAYLOAD,2024-07-15 19:17:05,15.08837263,0.0001092,53.219,25.7317,103.5539,256.5575,0.00016703,2.371e-05,0.0,0 STARLINK-5145,1 54008U 22125AW  24197.80353017  .00002371  00000-0  16703-3 0  9992,2 54008  53.2190  25.7317 0001092 103.5539 256.5575 15.08837263 98793,6917.889,95.438,540.509,538.998,0.0
54008.0,STARLINK-5145,PAYLOAD,2024-07-16 22:18:38,15.08843129,0.0001314,53.2183,20.6741,92.1976,267.9166,5.4718e-05,5.83e-06,0.0,0 STARLINK-5145,1 54008U 22125AW  24198.92960714  .00000583  00000-0  54718-4 0  9996,2 54008  53.2183  20.6741 0001314  92.1976 267.9166 15.08843129 98919,6917.871,95.437,540.645,538.827,0.0
54008.0,STARLINK-5145,PAYLOAD,2024-07-17 12:37:07,15.08830485,0.0002447,53.2195,18.0012,81.7575,278.3695,7.865e-06,-1.63e-06,0.0,0 STARLINK-5145,1 54008U 22125AW  24199.52578453 -.00000163  00000-0  78650-5 0  9995,2 54008  53.2195  18.0012 0002447  81.7575 278.3695 15.08830485 99051,6917.909,95.438,541.467,538.082,0.0
54008.0,STARLINK-5145,PAYLOAD,2024-07-17 17:23:18,15.08818738,0.000134,53.2198,17.1169,95.8331,264.2814,-6.0977e-05,-1.258e-05,0.0,0 STARLINK-5145,1 54008U 22125AW  24199.72451501 -.00001258  00000-0 -60977-4 0  9990,2 54008  53.2198  17.1169 0001340  95.8331 264.2814 15.08818738 99081,6917.945,95.439,540.737,538.883,0.0
54008.0,STARLINK-5145,PAYLOAD,2024-07-18 04:30:59,15.08834933,8.19e-05,53.2183,15.027,89.2856,270.823,-6.7909e-06,-3.96e-06,0.0,0 STARLINK-5145,1 54008U 22125AW  24200.18818397 -.00000396  00000-0 -67909-5 0  9998,2 54008  53.2183  15.0270 0000819  89.2856 270.8230 15.08834933 99152,6917.896,95.438,540.327,539.194,0.0
54008.0,STARLINK-5145,PAYLOAD,2024-07-18 18:49:26,15.08852424,0.0001348,53.2198,12.3586,111.4696,248.644,0.0002782,4.144e-05,0.0,0 STARLINK-5145,1 54008U 22125AW  24200.78433668  .00004144  00000-0  27820-3 0  9997,2 54008  53.2198  12.3586 0001348 111.4696 248.6440 15.08852424 99247,6917.842,95.437,540.64,538.775,0.0
54008.0,STARLINK-5145,PAYLOAD,2024-07-19 10:43:18,15.08844613,0.0001149,53.2186,9.3853,103.6817,256.4304,0.000389,5.909e-05,0.0,0 STARLINK-5145,1 54008U 22125AW  24201.44674090  .00005909  00000-0  38900-3 0  9998,2 54008  53.2186   9.3853 0001149 103.6817 256.4304 15.08844613 99342,6917.866,95.437,540.526,538.936,0.0
54008.0,STARLINK-5145,PAYLOAD,2024-07-19 18:40:14,15.08848284,0.0001077,53.2185,7.8938,82.6946,277.4168,0.00034716,5.243e-05,0.0,0 STARLINK-5145,1 54008U 22125AW  24201.77794055  .00005243  00000-0  34716-3 0  9990,2 54008  53.2185   7.8938 0001077  82.6946 277.4168 15.08848284 99346,6917.855,95.437,540.465,538.975,0.0
54008.0,STARLINK-5145,PAYLOAD,2024-07-20 10:34:05,15.08845464,0.0001505,53.2176,4.9235,73.9225,286.1932,-4.9868e-05,-1.082e-05,0.0,0 STARLINK-5145,1 54008U 22125AW  24202.44033835 -.00001082  00000-0 -49868-4 0  9991,2 54008  53.2176   4.9235 0001505  73.9225 286.1932 15.08845464 99492,6917.864,95.437,540.77,538.688,0.0
54008.0,STARLINK-5145,PAYLOAD,2024-07-20 18:31:00,15.08844281,0.0001172,53.218,3.4344,66.7,293.4115,-0.0001047,-1.954e-05,0.0,0 STARLINK-5145,1 54008U 22125AW  24202.77153804 -.00001954  00000-0 -10470-3 0  9990,2 54008  53.2180   3.4344 0001172  66.7000 293.4115 15.08844281 99493,6917.867,95.437,540.543,538.922,0.0
54008.0,STARLINK-5145,PAYLOAD,2024-07-21 04:03:20,15.08827419,0.0001101,53.2163,1.6493,62.3314,297.779,-0.00017388,-3.053e-05,0.0,0 STARLINK-5145,1 54008U 22125AW  24203.16898976 -.00003053  00000-0 -17388-3 0  9997,2 54008  53.2163   1.6493 0001101  62.3314 297.7790 15.08827419 99604,6917.919,95.438,540.546,539.022,0.0
54008.0,STARLINK-5145,PAYLOAD,2024-07-21 16:46:25,15.08839026,0.0001569,53.2185,359.2674,41.5178,318.5933,-1.567e-05,-5.37e-06,0.0,0 STARLINK-5145,1 54008U 22125AW  24203.69890660 -.00000537  00000-0 -15670-4 0  9994,2 54008  53.2185 359.2674 0001569  41.5178 318.5933 15.08839026 99682,6917.883,95.438,540.834,538.663,0.0
